OBJECT_NAME,OBJECT_ID,EPOCH,MEAN_MOTION,ECCENTRICITY,INCLINATION,RA_OF_ASC_NODE,ARG_OF_PERICENTER,MEAN_ANOMALY,EPHEMERIS_TYPE,CLASSIFICATION_TYPE,NORAD_CAT_ID,ELEMENT_SET_NO,REV_AT_EPOCH,BSTAR,MEAN_MOTION_DOT,MEAN_MOTION_DDOT
STARLINK-36660,2026-033AD,2026-07-13T07:30:58.916160,15.27587727,.00013602,43.0000,277.8463,263.1220,96.9477,0,U,67848,999,2388,.20266003E-3,.532E-4,0
STARLINK-36602,2026-033AE,2026-07-13T06:17:10.833216,15.27588021,.000292,43.0046,278.3301,295.6564,64.3986,0,U,67849,999,2387,.29555389E-3,.7882E-4,0
STARLINK-36276,2026-034C,2026-07-13T00:00:02.000160,15.30209550,.0000787,53.1580,342.4485,80.9493,78.0031,0,U,67852,999,588,-.31454726E-3,-.9665E-4,0
STARLINK-36838,2026-034F,2026-07-12T21:27:39.744000,15.31729128,.00012552,53.1589,342.0780,41.1866,318.9230,0,U,67855,999,2321,.70424433E-3,.21571E-3,0
STARLINK-36837,2026-034J,2026-07-13T10:20:49.000416,15.34403314,.000089,53.1595,336.9180,93.2133,266.8971,0,U,67858,999,2333,.37559E-3,.12336E-3,0
STARLINK-36393,2026-034K,2026-07-13T10:18:53.148384,15.31713979,.0000905,53.1599,339.0141,103.3047,256.8055,0,U,67859,999,2330,.42863E-3,.12965E-3,0
STARLINK-35873,2026-034L,2026-07-13T12:00:00.998784,15.34436339,.0000816,53.1601,339.9696,87.8737,11.7174,0,U,67860,999,576,-.156E-3,-.5649E-4,0
STARLINK-36325,2026-034M,2026-07-11T16:00:29.527488,15.30203599,.00006399,53.1589,348.6362,77.9120,282.1953,0,U,67861,999,2301,.19538433E-3,.5433E-4,0
STARLINK-36332,2026-034N,2026-07-13T10:15:23.162688,15.30192934,.0001167,53.1614,340.4266,78.3464,281.7668,0,U,67862,999,2328,.32934E-3,.9405E-4,0
STARLINK-36835,2026-034P,2026-07-13T10:10:48.942048,15.30205885,.0001027,53.1601,340.4053,76.1730,283.9384,0,U,67863,999,2328,.42995E-3,.12398E-3,0
STARLINK-36831,2026-034Q,2026-07-13T12:00:00.998784,15.34259113,.0003917,53.1607,339.9444,48.8407,62.6673,0,U,67864,999,576,.41581E-3,.13637E-3,0
STARLINK-36738,2026-034R,2026-07-12T19:50:39.342336,15.30209067,.00009117,53.1598,343.0707,107.2694,252.8407,0,U,67865,999,2319,.48487013E-3,.14033E-3,0
STARLINK-36780,2026-034S,2026-07-12T19:46:05.867328,15.30208748,.00008397,53.1604,343.0508,65.3700,294.7388,0,U,67866,999,2319,.60616718E-3,.17641E-3,0
STARLINK-36761,2026-034T,2026-07-13T09:48:01.320768,15.30204201,.0002002,53.1595,340.2983,87.2851,272.8379,0,U,67867,999,2328,.34323E-3,.9821E-4,0
STARLINK-36762,2026-034U,2026-07-13T09:41:56.558112,15.30203075,.000096,53.1619,340.2749,64.0874,296.0226,0,U,67868,999,2328,.47493E-3,.13734E-3,0
STARLINK-36779,2026-034V,2026-07-13T08:53:04.682976,15.34417949,.0000879,53.1587,337.2285,75.2895,284.8205,0,U,67869,999,2331,.82348E-3,.27564E-3,0
STARLINK-36770,2026-034W,2026-07-13T09:31:18.460416,15.30199429,.0000662,53.1622,340.2265,104.5928,255.5146,0,U,67870,999,2328,.36104E-3,.10349E-3,0
STARLINK-36769,2026-034X,2026-07-12T16:13:40.816704,15.30204139,.00008606,53.1617,343.5441,105.0781,255.0315,0,U,67871,999,2317,.39858918E-3,.11466E-3,0
STARLINK-36786,2026-034Y,2026-07-13T09:45:24.810624,15.31721786,.0000984,53.1601,339.5786,71.4261,288.6847,0,U,67872,999,2329,.4354E-3,.13179E-3,0
STARLINK-36783,2026-034Z,2026-07-13T10:23:50.462880,15.34401567,.0000863,53.1594,336.9096,96.4452,263.6649,0,U,67873,999,2333,.46855E-3,.15488E-3,0
STARLINK-36730,2026-034AA,2026-07-13T10:17:46.868352,15.34413089,.0000676,53.1586,336.8813,93.3224,266.7856,0,U,67874,999,2333,.51544E-3,.17086E-3,0
STARLINK-36727,2026-034AB,2026-07-13T08:58:22.417248,15.31705301,.0000725,53.1592,339.3723,338.2619,21.8351,0,U,67875,999,2329,.47618E-3,.14442E-3,0
STARLINK-36743,2026-034AC,2026-07-13T10:18:15.427872,15.30030936,.0007455,53.1598,340.4350,122.4640,237.7082,0,U,67876,999,2328,.73996E-3,.21519E-3,0
STARLINK-36784,2026-034AD,2026-07-13T12:00:00.998784,15.34410974,.0001492,53.1606,340.3952,93.7667,156.5132,0,U,67877,999,585,-.4281E-3,-.14817E-3,0
