STARLINK-36660          
1 67848U 26033AD  26194.31318190  .00005320  00000+0  20266-3 0  9993
2 67848  43.0000 277.8463 0001360 263.1220  96.9477 15.27587727 23889
STARLINK-36602          
1 67849U 26033AE  26194.26193094  .00007882  00000+0  29555-3 0  9997
2 67849  43.0046 278.3301 0002920 295.6564  64.3986 15.27588020 23871
STARLINK-36276          
1 67852U 26034C   26194.00002315 -.00009665  00000+0 -31455-3 0  9994
2 67852  53.1580 342.4485 0000787  80.9493  78.0031 15.30209550  5887
STARLINK-36838          
1 67855U 26034F   26193.89421000  .00021571  00000+0  70424-3 0  9996
2 67855  53.1589 342.0780 0001255  41.1866 318.9230 15.31729128 23210
STARLINK-36837          
1 67858U 26034J   26194.43112269  .00012336  00000+0  37559-3 0  9995
2 67858  53.1595 336.9180 0000890  93.2133 266.8971 15.34403314 23330
STARLINK-36393          
1 67859U 26034K   26194.42978181  .00012965  00000+0  42863-3 0  9990
2 67859  53.1599 339.0141 0000905 103.3047 256.8055 15.31713979 23307
STARLINK-35873          
1 67860U 26034L   26194.50001156 -.00005649  00000+0 -15600-3 0  9992
2 67860  53.1601 339.9696 0000816  87.8737  11.7174 15.34436339  5765
STARLINK-36325          
1 67861U 26034M   26192.66700842  .00005433  00000+0  19538-3 0  9999
2 67861  53.1589 348.6362 0000639  77.9120 282.1953 15.30203599 23010
STARLINK-36332          
1 67862U 26034N   26194.42735142  .00009405  00000+0  32934-3 0  9995
2 67862  53.1614 340.4266 0001167  78.3464 281.7668 15.30192934 23283
STARLINK-36835          
1 67863U 26034P   26194.42417757  .00012398  00000+0  42995-3 0  9998
2 67863  53.1601 340.4053 0001027  76.1730 283.9384 15.30205885 23280
STARLINK-36831          
1 67864U 26034Q   26194.50001156  .00013637  00000+0  41581-3 0  9997
2 67864  53.1607 339.9444 0003917  48.8407  62.6673 15.34259113  5764
STARLINK-36738          
1 67865U 26034R   26193.82684424  .00014033  00000+0  48487-3 0  9990
2 67865  53.1598 343.0707 0000911 107.2694 252.8407 15.30209067 23195
STARLINK-36780          
1 67866U 26034S   26193.82367902  .00017641  00000+0  60617-3 0  9997
2 67866  53.1604 343.0508 0000839  65.3700 294.7388 15.30208748 23192
STARLINK-36761          
1 67867U 26034T   26194.40834862  .00009821  00000+0  34323-3 0  9993
2 67867  53.1595 340.2983 0002002  87.2851 272.8379 15.30204201 23289
STARLINK-36762          
1 67868U 26034U   26194.40412683  .00013734  00000+0  47493-3 0  9997
2 67868  53.1619 340.2749 0000960  64.0874 296.0226 15.30203075 23283
STARLINK-36779          
1 67869U 26034V   26194.37019309  .00027564  00000+0  82348-3 0  9996
2 67869  53.1587 337.2285 0000879  75.2895 284.8205 15.34417949 23312
STARLINK-36770          
1 67870U 26034W   26194.39674144  .00010349  00000+0  36104-3 0  9996
2 67870  53.1622 340.2265 0000662 104.5928 255.5146 15.30199429 23280
STARLINK-36769          
1 67871U 26034X   26193.67616686  .00011466  00000+0  39859-3 0  9995
2 67871  53.1617 343.5441 0000860 105.0781 255.0315 15.30204139 23176
STARLINK-36786          
1 67872U 26034Y   26194.40653716  .00013179  00000+0  43540-3 0  9998
2 67872  53.1601 339.5786 0000984  71.4261 288.6847 15.31721786 23291
STARLINK-36783          
1 67873U 26034Z   26194.43322295  .00015488  00000+0  46855-3 0  9994
2 67873  53.1594 336.9096 0000863  96.4452 263.6649 15.34401567 23336
STARLINK-36730          
1 67874U 26034AA  26194.42901468  .00017086  00000+0  51544-3 0  9996
2 67874  53.1586 336.8813 0000676  93.3224 266.7856 15.34413089 23335
STARLINK-36727          
1 67875U 26034AB  26194.37387057  .00014442  00000+0  47618-3 0  9993
2 67875  53.1592 339.3723 0000725 338.2619  21.8351 15.31705301 23298
STARLINK-36743          
1 67876U 26034AC  26194.42934523  .00021519  00000+0  73996-3 0  9997
2 67876  53.1598 340.4350 0007455 122.4640 237.7082 15.30030936 23280
STARLINK-36784          
1 67877U 26034AD  26194.50001156 -.00014817  00000+0 -42810-3 0  9990
2 67877  53.1606 340.3952 0001492  93.7667 156.5132 15.34410974  5857
